IRIDIUM 921             
1 24873U 97034E   25039.70696520  .01280730  11355-2  11770-2 0  9997
2 24873  86.3542 167.3825 0008724 296.0540 179.9903 16.12652526512296
IRIDIUM 26              
1 24903U 97043A   25040.06667995  .00000797  00000+0  26267-3 0  9998
2 24903  86.4021 164.4033 0002152 100.2412 259.9028 14.36963078438818
IRIDIUM 22              
1 24907U 97043E   25039.89148677  .00000746  00000+0  25137-3 0  9991
2 24907  86.4025 167.8998 0002070  93.8658 266.2775 14.35796480438361
DUMMY MASS 1            
1 24925U 97048A   25039.94476019  .00000940  00000+0  10252-3 0  9994
2 24925  86.3377 194.5626 0004766 228.3179 131.7638 14.86782488486076
DUMMY MASS 2            
1 24926U 97048B   25039.95290331  .00000930  00000+0  10195-3 0  9992
2 24926  86.3375 196.1413 0005312 245.8837 114.1832 14.86535933485857
IRIDIUM 29              
1 24944U 97051A   25039.95867259  .00000923  00000+0  30948-3 0  9995
2 24944  86.3987 197.6175 0001913  87.0870 273.0546 14.36268203435088
IRIDIUM 33              
1 24946U 97051C   25039.94153273  .00000623  00000+0  21278-3 0  9993
2 24946  86.3905 196.8755 0009400 128.3914 231.8128 14.34755640434353
IRIDIUM 28              
1 24948U 97051E   25039.94549297  .00000835  00000+0  27402-3 0  9990
2 24948  86.3997 195.2140 0002311 101.2649 258.8808 14.37204419435492
